{
  "type": "FeatureCollection",
  "features": [
    {
      "type": "Feature",
      "properties": {
        "norad_id": 34079,
        "name": "IRIDIUM 33 DEB",
        "group": "iridium-33-debris",
        "lat": 86.36013426005591,
        "lon": 90.73113948032926,
        "alt_km": 611.0055851659981,
        "timestamp": "2025-12-18T23:35:49.447251+00:00",
        "meta_object_name": "IRIDIUM 33 DEB",
        "meta_object_id": "1997-051CN",
        "meta_epoch": "2025-12-18T08:55:11.182080",
        "meta_mean_motion": 14.83670039,
        "meta_eccentricity": 0.00048742,
        "meta_inclination": 86.3769,
        "meta_ra_of_asc_node": 6.101,
        "meta_arg_of_pericenter": 348.9111,
        "meta_mean_anomaly": 76.4164,
        "meta_ephemeris_type": 0,
        "meta_classification_type": "U",
        "meta_norad_cat_id": 34079,
        "meta_element_set_no": 999,
        "meta_rev_at_epoch": 89061,
        "meta_bstar": 0.0014010479,
        "meta_mean_motion_dot": 0.00011602,
        "meta_mean_motion_ddot": 0,
        "tle_line1": "1 34079U 97051CN  25352.37165720  .00011602  00000+0  14010-2 0  9990",
        "tle_line2": "2 34079  86.3769   6.1010 0004874 348.9111  76.4164 14.83670039890615"
      },
      "geometry": {
        "type": "Point",
        "coordinates": [
          90.73113948032926,
          86.36013426005591
        ]
      }
    },
    {
      "type": "Feature",
      "properties": {
        "norad_id": 34088,
        "name": "IRIDIUM 33 DEB",
        "group": "iridium-33-debris",
        "lat": -1.394827757388406,
        "lon": 27.767025453121704,
        "alt_km": 600.1363246908904,
        "timestamp": "2025-12-18T23:35:49.447262+00:00",
        "meta_object_name": "IRIDIUM 33 DEB",
        "meta_object_id": "1997-051CX",
        "meta_epoch": "2025-12-18T14:28:14.036736",
        "meta_mean_motion": 14.91642976,
        "meta_eccentricity": 0.00062963,
        "meta_inclination": 86.3845,
        "meta_ra_of_asc_node": 28.03,
        "meta_arg_of_pericenter": 157.6223,
        "meta_mean_anomaly": 320.458,
        "meta_ephemeris_type": 0,
        "meta_classification_type": "U",
        "meta_norad_cat_id": 34088,
        "meta_element_set_no": 999,
        "meta_rev_at_epoch": 88829,
        "meta_bstar": 0.001873771,
        "meta_mean_motion_dot": 0.0001888,
        "meta_mean_motion_ddot": 0,
        "tle_line1": "1 34088U 97051CX  25352.60294024  .00018880  00000+0  18738-2 0  9992",
        "tle_line2": "2 34088  86.3845  28.0300 0006296 157.6223 320.4580 14.91642976888297"
      },
      "geometry": {
        "type": "Point",
        "coordinates": [
          27.767025453121704,
          -1.394827757388406
        ]
      }
    },
    {
      "type": "Feature",
      "properties": {
        "norad_id": 34091,
        "name": "IRIDIUM 33 DEB",
        "group": "iridium-33-debris",
        "lat": -27.89197218602086,
        "lon": 62.03378229943021,
        "alt_km": 616.7262398813018,
        "timestamp": "2025-12-18T23:35:49.447273+00:00",
        "meta_object_name": "IRIDIUM 33 DEB",
        "meta_object_id": "1997-051DA",
        "meta_epoch": "2025-12-18T04:16:47.373312",
        "meta_mean_motion": 14.8221607,
        "meta_eccentricity": 0.00338054,
        "meta_inclination": 86.3422,
        "meta_ra_of_asc_node": 64.3429,
        "meta_arg_of_pericenter": 273.6022,
        "meta_mean_anomaly": 86.1335,
        "meta_ephemeris_type": 0,
        "meta_classification_type": "U",
        "meta_norad_cat_id": 34091,
        "meta_element_set_no": 999,
        "meta_rev_at_epoch": 87947,
        "meta_bstar": 0.0037025527,
        "meta_mean_motion_dot": 0.00029931,
        "meta_mean_motion_ddot": 0,
        "tle_line1": "1 34091U 97051DA  25352.17832608  .00029931  00000+0  37026-2 0  9994",
        "tle_line2": "2 34091  86.3422  64.3429 0033805 273.6022  86.1335 14.82216070879475"
      },
      "geometry": {
        "type": "Point",
        "coordinates": [
          62.03378229943021,
          -27.89197218602086
        ]
      }
    },
    {
      "type": "Feature",
      "properties": {
        "norad_id": 34097,
        "name": "IRIDIUM 33 DEB",
        "group": "iridium-33-debris",
        "lat": -58.28564692362225,
        "lon": -175.17372912964322,
        "alt_km": 795.9543450019228,
        "timestamp": "2025-12-18T23:35:49.447284+00:00",
        "meta_object_name": "IRIDIUM 33 DEB",
        "meta_object_id": "1997-051DG",
        "meta_epoch": "2025-12-18T12:26:28.365504",
        "meta_mean_motion": 14.34821944,
        "meta_eccentricity": 0.00819543,
        "meta_inclination": 86.2001,
        "meta_ra_of_asc_node": 358.8573,
        "meta_arg_of_pericenter": 343.3176,
        "meta_mean_anomaly": 16.5326,
        "meta_ephemeris_type": 0,
        "meta_classification_type": "U",
        "meta_norad_cat_id": 34097,
        "meta_element_set_no": 999,
        "meta_rev_at_epoch": 87202,
        "meta_bstar": 0.0011048687,
        "meta_mean_motion_dot": 3.274e-05,
        "meta_mean_motion_ddot": 0,
        "tle_line1": "1 34097U 97051DG  25352.51838386  .00003274  00000+0  11049-2 0  9996",
        "tle_line2": "2 34097  86.2001 358.8573 0081954 343.3176  16.5326 14.34821944872027"
      },
      "geometry": {
        "type": "Point",
        "coordinates": [
          -175.17372912964322,
          -58.28564692362225
        ]
      }
    },
    {
      "type": "Feature",
      "properties": {
        "norad_id": 34145,
        "name": "IRIDIUM 33 DEB",
        "group": "iridium-33-debris",
        "lat": -43.41151426026288,
        "lon": -33.84855096206118,
        "alt_km": 775.6486977834393,
        "timestamp": "2025-12-18T23:35:49.447294+00:00",
        "meta_object_name": "IRIDIUM 33 DEB",
        "meta_object_id": "1997-051DY",
        "meta_epoch": "2025-12-18T08:48:48.486240",
        "meta_mean_motion": 14.42328092,
        "meta_eccentricity": 0.00557365,
        "meta_inclination": 86.2113,
        "meta_ra_of_asc_node": 330.0199,
        "meta_arg_of_pericenter": 75.968,
        "meta_mean_anomaly": 284.7708,
        "meta_ephemeris_type": 0,
        "meta_classification_type": "U",
        "meta_norad_cat_id": 34145,
        "meta_element_set_no": 999,
        "meta_rev_at_epoch": 87719,
        "meta_bstar": 0.00092678493,
        "meta_mean_motion_dot": 3.137e-05,
        "meta_mean_motion_ddot": 0,
        "tle_line1": "1 34145U 97051DY  25352.36722785  .00003137  00000+0  92678-3 0  9994",
        "tle_line2": "2 34145  86.2113 330.0199 0055736  75.9680 284.7708 14.42328092877199"
      },
      "geometry": {
        "type": "Point",
        "coordinates": [
          -33.84855096206118,
          -43.41151426026288
        ]
      }
    },
    {
      "type": "Feature",
      "properties": {
        "norad_id": 34146,
        "name": "IRIDIUM 33 DEB",
        "group": "iridium-33-debris",
        "lat": 73.38775397030778,
        "lon": 154.45668593497982,
        "alt_km": 722.8299689502419,
        "timestamp": "2025-12-18T23:35:49.447305+00:00",
        "meta_object_name": "IRIDIUM 33 DEB",
        "meta_object_id": "1997-051DZ",
        "meta_epoch": "2025-12-18T10:33:11.426976",
        "meta_mean_motion": 14.49086296,
        "meta_eccentricity": 0.00260309,
        "meta_inclination": 86.2829,
        "meta_ra_of_asc_node": 347.2824,
        "meta_arg_of_pericenter": 201.6816,
        "meta_mean_anomaly": 311.34,
        "meta_ephemeris_type": 0,
        "meta_classification_type": "U",
        "meta_norad_cat_id": 34146,
        "meta_element_set_no": 999,
        "meta_rev_at_epoch": 88189,
        "meta_bstar": 0.00071063521,
        "meta_mean_motion_dot": 2.73e-05,
        "meta_mean_motion_ddot": 0,
        "tle_line1": "1 34146U 97051DZ  25352.43971559  .00002730  00000+0  71064-3 0  9992",
        "tle_line2": "2 34146  86.2829 347.2824 0026030 201.6816 311.3400 14.49086296881895"
      },
      "geometry": {
        "type": "Point",
        "coordinates": [
          154.45668593497982,
          73.38775397030778
        ]
      }
    },
    {
      "type": "Feature",
      "properties": {
        "norad_id": 34159,
        "name": "IRIDIUM 33 DEB",
        "group": "iridium-33-debris",
        "lat": -55.628083216946386,
        "lon": 40.22446763960483,
        "alt_km": 756.0320561711851,
        "timestamp": "2025-12-18T23:35:49.447316+00:00",
        "meta_object_name": "IRIDIUM 33 DEB",
        "meta_object_id": "1997-051EN",
        "meta_epoch": "2025-12-18T13:50:19.679424",
        "meta_mean_motion": 14.38507625,
        "meta_eccentricity": 0.00259598,
        "meta_inclination": 86.35,
        "meta_ra_of_asc_node": 45.7526,
        "meta_arg_of_pericenter": 267.136,
        "meta_mean_anomaly": 92.6867,
        "meta_ephemeris_type": 0,
        "meta_classification_type": "U",
        "meta_norad_cat_id": 34159,
        "meta_element_set_no": 999,
        "meta_rev_at_epoch": 88043,
        "meta_bstar": 0.0002959983,
        "meta_mean_motion_dot": 9.27e-06,
        "meta_mean_motion_ddot": 0,
        "tle_line1": "1 34159U 97051EN  25352.57661666  .00000927  00000+0  29600-3 0  9991",
        "tle_line2": "2 34159  86.3500  45.7526 0025959 267.1360  92.6867 14.38507625880432"
      },
      "geometry": {
        "type": "Point",
        "coordinates": [
          40.22446763960483,
          -55.628083216946386
        ]
      }
    }
  ]
}